NORAD_CAT_ID,OBJECT_NAME,OBJECT_TYPE,EPOCH,MEAN_MOTION,ECCENTRICITY,INCLINATION,RA_OF_ASC_NODE,ARG_OF_PERICENTER,MEAN_ANOMALY,BSTAR,MEAN_MOTION_DOT,MEAN_MOTION_DDOT,TLE_LINE0,TLE_LINE1,TLE_LINE2,SEMIMAJOR_AXIS,PERIOD,APOGEE,PERIGEE,DECAYED
49147.0,STARLINK-3071,PAYLOAD,2023-04-10 07:25:16,14.98328594,0.0003075,70.0005,58.1395,273.6453,86.4355,1.7376e-05,1.14e-06,0.0,0 STARLINK-3071,1 49147U 21082T   23100.30922229  .00000114  00000-0  17376-4 0  9997,2 49147  70.0005  58.1395 0003075 273.6453  86.4355 14.98328594 87532,6950.197,96.107,574.199,569.925,0.0
49147.0,STARLINK-3071,PAYLOAD,2023-04-11 04:15:00,14.98336069,0.0002909,70.0006,55.9517,269.041,91.0415,5.5997e-05,5.75e-06,0.0,0 STARLINK-3071,1 49147U 21082T   23101.17709486  .00000575  00000-0  55997-4 0  9993,2 49147  70.0006  55.9517 0002909 269.0410  91.0415 14.98336069 88830,6950.174,96.107,574.061,570.017,0.0
49147.0,STARLINK-3071,PAYLOAD,2023-04-11 07:27:16,14.98338666,0.0002881,70.0008,55.6152,268.9494,91.1334,8.3215e-05,9e-06,0.0,0 STARLINK-3071,1 49147U 21082T   23101.31061188  .00000900  00000-0  83215-4 0  9995,2 49147  70.0008  55.6152 0002881 268.9494  91.1334 14.98338666 87681,6950.166,96.106,574.033,570.029,0.0
49147.0,STARLINK-3071,PAYLOAD,2023-04-12 04:17:02,14.98321732,0.0002617,70.0016,53.427,269.2182,90.8677,1.5652e-05,9.4e-07,0.0,0 STARLINK-3071,1 49147U 21082T   23102.17850578  .00000094  00000-0  15652-4 0  9993,2 49147  70.0016  53.4270 0002617 269.2182  90.8677 14.98321732 88988,6950.218,96.108,573.902,570.265,0.0
49147.0,STARLINK-3071,PAYLOAD,2023-04-12 13:53:50,14.98335285,0.0002816,70.0019,52.4175,271.4802,88.6034,-0.00011556,-1.472e-05,0.0,0 STARLINK-3071,1 49147U 21082T   23102.57906107 -.00001472  00000-0 -11556-3 0  9998,2 49147  70.0019  52.4175 0002816 271.4802  88.6034 14.98335285 87876,6950.177,96.107,573.999,570.084,0.0
49147.0,STARLINK-3071,PAYLOAD,2023-04-13 05:55:10,14.98343379,0.0002633,70.0017,50.7338,266.5831,93.5027,5.3176e-05,5.42e-06,0.0,0 STARLINK-3071,1 49147U 21082T   23103.24664937  .00000542  00000-0  53176-4 0  9995,2 49147  70.0017  50.7338 0002633 266.5831  93.5027 14.98343379 87971,6950.152,96.106,573.846,570.187,0.0
49147.0,STARLINK-3071,PAYLOAD,2023-04-14 05:57:12,14.98328006,0.0002954,70.0012,48.2083,271.3073,88.7748,3.2831e-05,2.99e-06,0.0,0 STARLINK-3071,1 49147U 21082T   23104.24805949  .00000299  00000-0  32831-4 0  9990,2 49147  70.0012  48.2083 0002954 271.3073  88.7748 14.98328006 88127,6950.199,96.107,574.117,570.011,0.0
49147.0,STARLINK-3071,PAYLOAD,2023-04-14 21:58:32,14.98331611,0.000287,70.0017,46.5251,271.2273,88.8558,-8.7426e-06,-1.97e-06,0.0,0 STARLINK-3071,1 49147U 21082T   23104.91565861 -.00000197  00000-0 -87426-5 0  9990,2 49147  70.0017  46.5251 0002870 271.2273  88.8558 14.98331611 89394,6950.188,96.107,574.048,570.058,0.0
49147.0,STARLINK-3071,PAYLOAD,2023-04-15 05:59:12,14.98341234,0.0002959,70.0017,45.6848,270.2485,89.8335,-4.7429e-05,-6.59e-06,0.0,0 STARLINK-3071,1 49147U 21082T   23105.24945270 -.00000659  00000-0 -47429-4 0  9994,2 49147  70.0017  45.6848 0002959 270.2485  89.8335 14.98341234 88270,6950.158,96.106,574.08,569.967,0.0
49147.0,STARLINK-3071,PAYLOAD,2023-04-15 20:24:26,14.98320099,0.000309,70.0018,44.1688,268.6203,91.4602,8.8094e-05,9.58e-06,0.0,0 STARLINK-3071,1 49147U 21082T   23105.85030143  .00000958  00000-0  88094-4 0  9998,2 49147  70.0018  44.1688 0003090 268.6203  91.4602 14.98320099 89535,6950.224,96.108,574.236,569.941,0.0
49147.0,STARLINK-3071,PAYLOAD,2023-04-15 22:00:34,14.98319009,0.0003081,70.0018,44.0005,268.5685,91.5121,0.00010021,1.103e-05,0.0,0 STARLINK-3071,1 49147U 21082T   23105.91706225  .00001103  00000-0  10021-3 0  9993,2 49147  70.0018  44.0005 0003081 268.5685  91.5121 14.98319009 88377,6950.227,96.108,574.233,569.951,0.0
49147.0,STARLINK-3071,PAYLOAD,2023-04-16 04:25:06,14.98330501,0.0002895,70.0016,43.3281,265.085,94.9978,4.7796e-05,4.77e-06,0.0,0 STARLINK-3071,1 49147U 21082T   23106.18409736  .00000477  00000-0  47796-4 0  9993,2 49147  70.0016  43.3281 0002895 265.0850  94.9978 14.98330501 89582,6950.191,96.107,574.068,570.044,0.0
49147.0,STARLINK-3071,PAYLOAD,2023-04-16 06:01:13,14.98333094,0.0002984,70.0014,43.1589,268.1685,91.9133,5.4627e-05,5.59e-06,0.0,0 STARLINK-3071,1 49147U 21082T   23106.25085559  .00000559  00000-0  54627-4 0  9996,2 49147  70.0014  43.1589 0002984 268.1685  91.9133 14.98333094 88420,6950.183,96.107,574.122,569.974,0.0
49147.0,STARLINK-3071,PAYLOAD,2023-04-16 20:26:26,14.98327344,0.0003041,70.0015,41.6443,271.6551,88.426,1.1375e-05,4.3e-07,0.0,0 STARLINK-3071,1 49147U 21082T   23106.85170102  .00000043  00000-0  11375-4 0  9992,2 49147  70.0015  41.6443 0003041 271.6551  88.4260 14.98327344 88512,6950.201,96.107,574.18,569.953,0.0
49147.0,STARLINK-3071,PAYLOAD,2023-04-17 04:27:06,14.98333313,0.0002775,70.0019,40.8037,264.5664,95.5179,1.7772e-05,1.19e-06,0.0,0 STARLINK-3071,1 49147U 21082T   23107.18549712  .00000119  00000-0  17772-4 0  9997,2 49147  70.0019  40.8037 0002775 264.5664  95.5179 14.98333313 89731,6950.183,96.107,573.976,570.119,0.0
49147.0,STARLINK-3071,PAYLOAD,2023-04-17 06:03:14,14.98334952,0.0002771,70.0019,40.6354,264.136,95.9483,3.6204e-05,3.39e-06,0.0,0 STARLINK-3071,1 49147U 21082T   23107.25225543  .00000339  00000-0  36204-4 0  9993,2 49147  70.0019  40.6354 0002771 264.1360  95.9483 14.98334952 88579,6950.178,96.107,573.968,570.117,0.0
49147.0,STARLINK-3071,PAYLOAD,2023-04-17 22:04:35,14.98329261,0.0002635,70.0023,38.953,256.8944,103.1921,1.3113e-05,6.4e-07,0.0,0 STARLINK-3071,1 49147U 21082T   23107.91985962  .00000064  00000-0  13113-4 0  9993,2 49147  70.0023  38.9530 0002635 256.8944 103.1921 14.98329261 88672,6950.195,96.107,573.892,570.229,0.0
49147.0,STARLINK-3071,PAYLOAD,2023-04-18 06:05:15,14.98330004,0.0002563,70.0024,38.1105,256.9646,103.1227,0.00010439,1.153e-05,0.0,0 STARLINK-3071,1 49147U 21082T   23108.25365712  .00001153  00000-0  10439-3 0  9993,2 49147  70.0024  38.1105 0002563 256.9646 103.1227 14.98330004 89894,6950.193,96.107,573.839,570.277,0.0
49147.0,STARLINK-3071,PAYLOAD,2023-04-19 04:31:09,14.98329099,0.0002815,70.0021,35.7529,265.3344,94.7494,-3.3618e-05,-4.94e-06,0.0,0 STARLINK-3071,1 49147U 21082T   23109.18830222 -.00000494  00000-0 -33618-4 0  9993,2 49147  70.0021  35.7529 0002815 265.3344  94.7494 14.98329099 88862,6950.196,96.107,574.017,570.104,0.0
49147.0,STARLINK-3071,PAYLOAD,2023-04-20 01:20:53,14.98333118,0.0002976,70.0013,33.5645,267.9997,92.0821,0.00010753,1.19e-05,0.0,0 STARLINK-3071,1 49147U 21082T   23110.05617405  .00001190  00000-0  10753-3 0  9993,2 49147  70.0013  33.5645 0002976 267.9997  92.0821 14.98333118 90166,6950.183,96.107,574.117,569.98,0.0
49147.0,STARLINK-3071,PAYLOAD,2023-04-20 04:33:09,14.983385,0.0002892,70.0017,33.2295,268.624,91.4588,8.0153e-05,8.64e-06,0.0,0 STARLINK-3071,1 49147U 21082T   23110.18969084  .00000864  00000-0  80153-4 0  9999,2 49147  70.0017  33.2295 0002892 268.6240  91.4588 14.98338500 89019,6950.167,96.106,574.042,570.022,0.0
49147.0,STARLINK-3071,PAYLOAD,2023-04-21 01:22:55,14.98321787,0.000294,70.0013,31.0404,265.5544,94.528,-5.8495e-05,-7.91e-06,0.0,0 STARLINK-3071,1 49147U 21082T   23111.05758701 -.00000791  00000-0 -58495-4 0  9993,2 49147  70.0013  31.0404 0002940 265.5544  94.5280 14.98321787 90317,6950.218,96.108,574.127,570.04,0.0
49147.0,STARLINK-3071,PAYLOAD,2023-04-21 04:35:11,14.98323647,0.0003054,70.0015,30.7037,265.8282,94.2528,-4.9758e-05,-6.87e-06,0.0,0 STARLINK-3071,1 49147U 21082T   23111.19110617 -.00000687  00000-0 -49758-4 0  9992,2 49147  70.0015  30.7037 0003054 265.8282  94.2528 14.98323647 89166,6950.213,96.107,574.2,569.955,0.0
49147.0,STARLINK-3071,PAYLOAD,2023-04-22 01:24:55,14.98342022,0.0003218,70.0012,28.5159,264.1117,95.9676,9.8644e-06,2.5e-07,0.0,0 STARLINK-3071,1 49147U 21082T   23112.05897173  .00000025  00000-0  98644-5 0  9990,2 49147  70.0012  28.5159 0003218 264.1117  95.9676 14.98342022 89298,6950.156,96.106,574.257,569.784,0.0
49147.0,STARLINK-3071,PAYLOAD,2023-04-23 04:39:11,14.98359287,0.0002502,70.003,25.6551,264.193,95.8944,-0.00033241,-4.06e-05,0.0,0 STARLINK-3071,1 49147U 21082T   23113.19388609 -.00004060  00000-0 -33241-3 0  9990,2 49147  70.0030  25.6551 0002502 264.1930  95.8944 14.98359287 89467,6950.102,96.105,573.706,570.228,0.0
49147.0,STARLINK-3071,PAYLOAD,2023-04-24 04:41:12,14.9834446,0.0003447,69.9997,23.1275,262.4415,97.6353,-2.5583e-06,-1.24e-06,0.0,0 STARLINK-3071,1 49147U 21082T   23114.19528253 -.00000124  00000-0 -25583-5 0  9991,2 49147  69.9997  23.1275 0003447 262.4415  97.6353 14.98344460 90788,6950.148,96.106,574.409,569.617,0.0
49147.0,STARLINK-3071,PAYLOAD,2023-04-25 03:07:03,14.98350474,0.0002677,70.0017,20.7707,258.9249,101.1609,0.00017917,2.047e-05,0.0,0 STARLINK-3071,1 49147U 21082T   23115.12990608  .00002047  00000-0  17917-3 0  9996,2 49147  70.0017  20.7707 0002677 258.9249 101.1609 14.98350474 90929,6950.13,96.106,573.855,570.134,0.0
49147.0,STARLINK-3071,PAYLOAD,2023-04-26 03:09:09,14.98298588,0.0003322,70.0013,18.25,264.5917,95.4864,-0.0003894,-4.732e-05,0.0,0 STARLINK-3071,1 49147U 21082T   23116.13136409 -.00004732  00000-0 -38940-3 0  9993,2 49147  70.0013  18.2500 0003322 264.5917  95.4864 14.98298588 89902,6950.29,96.109,574.464,569.846,0.0
49147.0,STARLINK-3071,PAYLOAD,2023-04-26 17:34:20,14.9832781,0.0002671,70.0041,16.7367,296.1009,63.9875,-0.0001399,-1.762e-05,0.0,0 STARLINK-3071,1 49147U 21082T   23116.73218481 -.00001762  00000-0 -13990-3 0  9998,2 49147  70.0041  16.7367 0002671 296.1009  63.9875 14.98327810 89998,6950.2,96.107,573.921,570.208,0.0
49147.0,STARLINK-3071,PAYLOAD,2023-04-27 03:11:07,14.98342755,0.0003146,70.0029,15.7242,291.4589,68.6234,1.8805e-05,1.31e-06,0.0,0 STARLINK-3071,1 49147U 21082T   23117.13272992  .00000131  00000-0  18805-4 0  9998,2 49147  70.0029  15.7242 0003146 291.4589  68.6234 14.98342755 91229,6950.153,96.106,574.205,569.832,0.0
